NORAD_CAT_ID,OBJECT_NAME,OBJECT_TYPE,EPOCH,MEAN_MOTION,ECCENTRICITY,INCLINATION,RA_OF_ASC_NODE,ARG_OF_PERICENTER,MEAN_ANOMALY,BSTAR,MEAN_MOTION_DOT,MEAN_MOTION_DDOT,TLE_LINE0,TLE_LINE1,TLE_LINE2,SEMIMAJOR_AXIS,PERIOD,APOGEE,PERIGEE,DECAYED
51965.0,STARLINK-3696,PAYLOAD,2022-07-18 22:00:00,15.0881059,0.000165,53.2142,238.6939,51.465,108.389,0.0017507,0.00027662,0.0,0 STARLINK-3696,1 51965U 22025K   22199.91667824  .00027662  00000-0  17507-2 0  9998,2 51965  53.2142 238.6939 0001650  51.4650 108.3890 15.08810590 21546,6917.97,95.439,540.977,538.694,0.0
51965.0,STARLINK-3696,PAYLOAD,2022-07-19 14:00:01,15.088181,0.0001864,53.2141,235.7027,46.3957,136.6256,0.002518,0.0003999,0.0,0 STARLINK-3696,1 51965U 22025K   22200.58334491  .00039990  00000-0  25180-2 0  9998,2 51965  53.2141 235.7027 0001864  46.3957 136.6256 15.08818100  1308,6917.946999999999,95.439,541.102,538.523,0.0
51965.0,STARLINK-3696,PAYLOAD,2022-07-19 22:00:00,15.08798653,0.0001761999999999,53.2157,234.2056,48.6816,145.9348,0.0080033999999999,0.00129286,0.0,0 STARLINK-3696,1 51965U 22025K   22200.91667824  .00129286  00000-0  80034-2 0  9991,2 51965  53.2157 234.2056 0001762  48.6816 145.9348 15.08798653  1302,6918.007,95.44,541.091,538.653,0.0
51965.0,STARLINK-3696,PAYLOAD,2022-07-20 06:00:00,15.08865665,0.0001807,53.2143,232.7088,51.8893,154.3243,-0.0013446,-0.00021639,0.0,0 STARLINK-3696,1 51965U 22025K   22201.25001157 -.00021639  00000-0 -13446-2 0  9998,2 51965  53.2143 232.7088 0001807  51.8893 154.3243 15.08865665 21742,6917.802,95.436,540.9169999999998,538.4169999999998,0.0
51965.0,STARLINK-3696,PAYLOAD,2022-07-20 14:00:01,15.08847402,0.0001879,53.2141,231.2132,45.4122,172.417,-0.00055172,-9.06e-05,0.0,0 STARLINK-3696,1 51965U 22025K   22201.58334491 -.00009060  00000-0 -55172-3 0  9991,2 51965  53.2141 231.2132 0001879  45.4122 172.4170 15.08847402  1306,6917.858,95.437,541.023,538.423,0.0
51965.0,STARLINK-3696,PAYLOAD,2022-07-20 22:00:01,15.08811423,0.0001701,53.2143,229.7149,49.1065,180.392,0.0025183,0.00039987,0.0,0 STARLINK-3696,1 51965U 22025K   22201.91668981  .00039987  00000-0  25183-2 0  9999,2 51965  53.2143 229.7149 0001701  49.1065 180.3920 15.08811423  1304,6917.968000000003,95.439,541.009,538.656,0.0
51965.0,STARLINK-3696,PAYLOAD,2022-07-21 08:00:01,15.08837105,0.0001891,53.2144,227.8458,46.8621,287.0398,-0.00096839,-0.00015666,0.0,0 STARLINK-3696,1 51965U 22025K   22202.33334491 -.00015666  00000-0 -96839-3 0  9999,2 51965  53.2144 227.8458 0001891  46.8621 287.0398 15.08837105 21906,6917.889,95.438,541.062,538.446,0.0
51965.0,STARLINK-3696,PAYLOAD,2022-07-21 14:00:01,15.08826125,0.0001924,53.2144,226.7238,43.8633,208.7899,0.0012652999999999,0.00019899,0.0,0 STARLINK-3696,1 51965U 22025K   22202.58335648  .00019899  00000-0  12653-2 0  9992,2 51965  53.2144 226.7238 0001924  43.8633 208.7899 15.08826125  1305,6917.9230000000025,95.438,541.119,538.457,0.0
51965.0,STARLINK-3696,PAYLOAD,2022-07-21 22:00:00,15.08814492,0.0001784,53.2147,225.2256,49.0964,215.0901,0.0026993,0.00042903,0.0,0 STARLINK-3696,1 51965U 22025K   22202.91667824  .00042903  00000-0  26993-2 0  9997,2 51965  53.2147 225.2256 0001784  49.0964 215.0901 15.08814492  1300,6917.958000000001,95.439,541.058,538.589,0.0
51965.0,STARLINK-3696,PAYLOAD,2022-07-22 06:00:00,15.08853541,0.0001919,53.2148,223.7303,48.2592,227.5099,-0.0014436,-0.00023198,0.0,0 STARLINK-3696,1 51965U 22025K   22203.25001157 -.00023198  00000-0 -14436-2 0  9992,2 51965  53.2148 223.7303 0001919  48.2592 227.5099 15.08853541  1309,6917.839,95.437,541.0319999999998,538.376,0.0
51965.0,STARLINK-3696,PAYLOAD,2022-07-22 22:00:00,15.08825541,0.0001854,53.2149,220.7364,50.2862,248.696,0.0029726999999999,0.00047322,0.0,0 STARLINK-3696,1 51965U 22025K   22203.91667824  .00047322  00000-0  29727-2 0  9996,2 51965  53.2149 220.7364 0001854  50.2862 248.6960 15.08825541  1305,6917.925,95.438,541.072,538.507,0.0
51965.0,STARLINK-3696,PAYLOAD,2022-07-23 14:00:01,15.08848905,0.0001983,53.2146,217.745,43.4978,278.754,-0.0019451,-0.00031119,0.0,0 STARLINK-3696,1 51965U 22025K   22204.58335648 -.00031119  00000-0 -19451-2 0  9998,2 51965  53.2146 217.7450 0001983  43.4978 278.7540 15.08848905  1306,6917.853,95.437,541.09,538.346,0.0
51965.0,STARLINK-3696,PAYLOAD,2022-07-23 16:00:00,15.08849945,0.0001935,53.2148,217.3704,44.6879,10.4,-0.0027109,-0.00043186,0.0,0 STARLINK-3696,1 51965U 22025K   22204.66667824 -.00043186  00000-0 -27109-2 0  9997,2 51965  53.2148 217.3704 0001935  44.6879  10.4000 15.08849945 22250,6917.85,95.437,541.054,538.376,0.0
51965.0,STARLINK-3696,PAYLOAD,2022-07-23 22:00:00,15.08806162,0.000179,53.2148,216.2471,49.2074,284.5849,0.0030621,0.00048738,0.0,0 STARLINK-3696,1 51965U 22025K   22204.91667824  .00048738  00000-0  30621-2 0  9994,2 51965  53.2148 216.2471 0001790  49.2074 284.5849 15.08806162  1308,6917.984,95.44,541.087,538.611,0.0
51965.0,STARLINK-3696,PAYLOAD,2022-07-24 14:00:01,15.08841288,0.0001975,53.2144,213.2558,43.7812,313.1688,-0.00074607,-0.00012143,0.0,0 STARLINK-3696,1 51965U 22025K   22205.58334491 -.00012143  00000-0 -74607-3 0  9995,2 51965  53.2144 213.2558 0001975  43.7812 313.1688 15.08841288  1309,6917.876,95.437,541.1080000000002,538.375,0.0
51965.0,STARLINK-3696,PAYLOAD,2022-07-24 22:00:00,15.08811998,0.0001798,53.2144,211.7579,50.6289,317.9209,0.0029691999999999,0.00047248,0.0,0 STARLINK-3696,1 51965U 22025K   22205.91667824  .00047248  00000-0  29692-2 0  9996,2 51965  53.2144 211.7579 0001798  50.6289 317.9209 15.08811998 22447,6917.965999999999,95.439,541.075,538.587,0.0
51965.0,STARLINK-3696,PAYLOAD,2022-07-25 14:00:01,15.08847997,0.000199,53.2138,208.7665,45.522,346.1980000000001,-0.0011584,-0.00018681,0.0,0 STARLINK-3696,1 51965U 22025K   22206.58334491 -.00018681  00000-0 -11584-2 0  9993,2 51965  53.2138 208.7665 0001990  45.5220 346.1980 15.08847997  1304,6917.856,95.437,541.0980000000002,538.344,0.0
51965.0,STARLINK-3696,PAYLOAD,2022-07-25 22:00:00,15.08817531,0.0001835,53.2138,207.2687,52.4939,350.8295,0.0026979,0.00042884,0.0,0 STARLINK-3696,1 51965U 22025K   22206.91667824  .00042884  00000-0  26979-2 0  9993,2 51965  53.2138 207.2687 0001835  52.4939 350.8295 15.08817531  1306,6917.949000000001,95.439,541.0840000000002,538.545,0.0
51965.0,STARLINK-3696,PAYLOAD,2022-07-26 14:00:01,15.0885255,0.0002031,53.2141,204.2772,47.4302,19.072,-0.001458,-0.00023426,0.0,0 STARLINK-3696,1 51965U 22025K   22207.58334491 -.00023426  00000-0 -14580-2 0  9996,2 51965  53.2141 204.2772 0002031  47.4302  19.0720 15.08852550  1306,6917.842,95.437,541.112,538.302,0.0
51965.0,STARLINK-3696,PAYLOAD,2022-07-26 22:00:00,15.08823902,0.0001911,53.2149,202.7793,54.0263,24.0811,0.0023283,0.00036945,0.0,0 STARLINK-3696,1 51965U 22025K   22207.91667824  .00036945  00000-0  23283-2 0  9990,2 51965  53.2149 202.7793 0001911  54.0263  24.0811 15.08823902  1302,6917.93,95.439,541.117,538.4730000000002,0.0
51965.0,STARLINK-3696,PAYLOAD,2022-07-27 06:00:02,15.08850819,0.0002096,53.2153,201.2846,50.6543,39.1128,-0.0012595,-0.00020284,0.0,0 STARLINK-3696,1 51965U 22025K   22208.25002315 -.00020284  00000-0 -12595-2 0  9991,2 51965  53.2153 201.2846 0002096  50.6543  39.1128 15.08850819 22801,6917.847,95.437,541.1619999999998,538.262,0.0
51965.0,STARLINK-3696,PAYLOAD,2022-07-27 14:00:01,15.08865392,0.0002085999999999,53.2154,199.7878,49.153,52.1535,-0.0013421,-0.000216,0.0,0 STARLINK-3696,1 51965U 22025K   22208.58334491 -.00021600  00000-0 -13421-2 0  9992,2 51965  53.2154 199.7878 0002086  49.1530  52.1535 15.08865392  1307,6917.803000000001,95.436,541.111,538.225,0.0
51965.0,STARLINK-3696,PAYLOAD,2022-07-27 22:00:00,15.08842831,0.0001983,53.2155,198.29,54.5956,58.3209,0.00096988,0.00015183,0.0,0 STARLINK-3696,1 51965U 22025K   22208.91667824  .00015183  00000-0  96988-3 0  9995,2 51965  53.2155 198.2900 0001983  54.5956  58.3209 15.08842831  1304,6917.871999999999,95.437,541.109,538.365,0.0
51965.0,STARLINK-3696,PAYLOAD,2022-07-28 00:00:00,15.0886743,0.0002,53.2157,197.9163,55.3677,150.4423,-0.0021907,-0.00035011,0.0,0 STARLINK-3696,1 51965U 22025K   22209.00001157 -.00035011  00000-0 -21907-2 0  9999,2 51965  53.2157 197.9163 0002000  55.3677 150.4423 15.08867430 22917,6917.797,95.436,541.045,538.278,0.0
51965.0,STARLINK-3696,PAYLOAD,2022-07-28 14:00:01,15.08840316,0.0002084,53.2157,195.2985,47.8626,88.2404,-0.0017888,-0.00028645,0.0,0 STARLINK-3696,1 51965U 22025K   22209.58334491 -.00028645  00000-0 -17888-2 0  9990,2 51965  53.2157 195.2985 0002084  47.8626  88.2404 15.08840316  1303,6917.879,95.438,541.186,538.303,0.0
51965.0,STARLINK-3696,PAYLOAD,2022-07-28 22:00:00,15.08817736,0.0002016,53.2161,193.8009,53.9179,93.7696,0.0017877,0.00028261,0.0,0 STARLINK-3696,1 51965U 22025K   22209.91667824  .00028261  00000-0  17877-2 0  9996,2 51965  53.2161 193.8009 0002016  53.9179  93.7696 15.08817736  1309,6917.948,95.439,541.2080000000002,538.419,0.0
51965.0,STARLINK-3696,PAYLOAD,2022-07-29 00:00:00,15.0883587,0.0002036,53.2162,193.4273,54.578,185.998,-5.9567e-05,-1.236e-05,0.0,0 STARLINK-3696,1 51965U 22025K   22210.00001157 -.00001236  00000-0 -59567-4 0  9998,2 51965  53.2162 193.4273 0002036  54.5780 185.9980 15.08835870 23062,6917.893,95.438,541.1659999999998,538.35,0.0
51965.0,STARLINK-3696,PAYLOAD,2022-07-29 14:00:01,15.08848564,0.0002177,53.2164,190.8093,49.3068,121.5351,-0.0020063,-0.00032085,0.0,0 STARLINK-3696,1 51965U 22025K   22210.58334491 -.00032085  00000-0 -20063-2 0  9994,2 51965  53.2164 190.8093 0002177  49.3068 121.5351 15.08848564  1307,6917.854,95.437,541.225,538.2130000000002,0.0
51965.0,STARLINK-3696,PAYLOAD,2022-07-29 22:00:00,15.0882859,0.000212,53.2169,189.3119,54.9697,127.4647,0.0014995,0.0002365,0.0,0 STARLINK-3696,1 51965U 22025K   22210.91667824  .00023650  00000-0  14995-2 0  9993,2 51965  53.2169 189.3119 0002120  54.9697 127.4647 15.08828590  1302,6917.915,95.438,541.247,538.314,0.0
